IRIDIUM 63              
1 25286U 98021B   25340.84646972  .00000684  00000+0  22552-3 0  9999
2 25286  86.3987   9.6877 0002413  91.1013 269.0460 14.36728933448636
IRIDIUM 69              
1 25319U 98026A   25340.88279379  .00000974  00000+0  29586-3 0  9994
2 25319  86.3983  22.4148 0003514 135.6722 224.4759 14.41208535447932
IRIDIUM 71              
1 25320U 98026B   25340.86998195  .00000524  00000+0  15602-3 0  9993
2 25320  86.3980  17.0934 0001294 161.6566 198.4681 14.41312890448465
IRIDIUM 73              
1 25344U 98032C   25340.92103079  .00001229  00000+0  29956-3 0  9992
2 25344  86.4402 333.4626 0002835  98.3625 261.7902 14.51977633455627
IRIDIUM 82              
1 25467U 98051A   25340.62933629  .00061229  00000+0  11590-2 0  9998
2 25467  86.3609  24.1841 0062400 359.1921   0.9224 15.45971544450450
